PHISAT 2                
1 60470U 24149C   26068.78834181  .00008925  00000+0  31421-3 0  9996
2 60470  97.3806 148.6498 0001175 168.6230 191.5037 15.29548631 86792
STARLINK-35281          
1 65824U 25221B   26068.33418962  .00003605  00000+0  13386-3 0  9992
2 65824  53.1588  90.3744 0001190  83.0260 277.0877 15.30181040 26025
